[{"OBJECT_NAME":"STARLINK-32935","OBJECT_ID":"2025-048V","EPOCH":"2026-03-09T09:30:54.046368","MEAN_MOTION":15.27579244,"ECCENTRICITY":0.00014379,"INCLINATION":43.0001,"RA_OF_ASC_NODE":87.2906,"ARG_OF_PERICENTER":266.9278,"MEAN_ANOMALY":93.1409,"EPHEMERIS_TYPE":0,"CLASSIFICATION_TYPE":"U","NORAD_CAT_ID":63202,"ELEMENT_SET_NO":999,"REV_AT_EPOCH":5704,"BSTAR":0.0011227453,"MEAN_MOTION_DOT":0.00030762,"MEAN_MOTION_DDOT":0},{"OBJECT_NAME":"USA 60","OBJECT_ID":"1990-050B","EPOCH":"2026-03-09T13:24:55.962720","MEAN_MOTION":13.64521674,"ECCENTRICITY":0.0879763,"INCLINATION":63.2945,"RA_OF_ASC_NODE":117.426,"ARG_OF_PERICENTER":81.005,"MEAN_ANOMALY":288.9398,"EPHEMERIS_TYPE":0,"CLASSIFICATION_TYPE":"U","NORAD_CAT_ID":20682,"ELEMENT_SET_NO":999,"REV_AT_EPOCH":9025,"BSTAR":0.00037184,"MEAN_MOTION_DOT":5.55e-5,"MEAN_MOTION_DDOT":0}]
